start=new Date('2022-01-14T00:00:00.000Z').valueOf();
sats=[{"GP_ID":"193812293","APOAPSIS":"548.714","ECCENTRICITY":"0.00021730","FILE":"3272312","INCLINATION":"53.0549","BSTAR":"0.00008696400000","REF_FRAME":"TEME","PERIOD":"95.592","MEAN_MOTION_DDOT":"0.0000000000000","EPHEMERIS_TYPE":"0","SITE":"AFETR","CLASSIFICATION_TYPE":"U","DECAY_DATE":null,"ELEMENT_SET_NO":"999","MEAN_MOTION_DOT":"0.00001014","PERIAPSIS":"545.705","TLE_LINE2":"2 47752  53.0549 172.2154 0002173  77.6316 282.4916 15.06401305 49356","OBJECT_NAME":"STARLINK-2169","OBJECT_ID":"2021-017AG","MEAN_ANOMALY":"282.4916","OBJECT_TYPE":"PAYLOAD","TIME_SYSTEM":"UTC","RCS_SIZE":"MEDIUM","EPOCH":"2022-01-13T16:35:04.049376","MEAN_ELEMENT_THEORY":"SGP4","TLE_LINE1":"1 47752U 21017AG  22013.69101909  .00001014  00000-0  86964-4 0  9992","CENTER_NAME":"EARTH","NORAD_CAT_ID":"47752","RA_OF_ASC_NODE":"172.2154","REV_AT_EPOCH":"4935","LAUNCH_DATE":"2021-03-04","SEMIMAJOR_AXIS":"6925.345","ARG_OF_PERICENTER":"77.6316","MEAN_MOTION":"15.06401305","COUNTRY_CODE":"US"},{"REF_FRAME":"TEME","BSTAR":"0.00007022900000","INCLINATION":"53.0551","ECCENTRICITY":"0.00021780","FILE":"3272312","GP_ID":"193811041","APOAPSIS":"548.697","OBJECT_NAME":"STARLINK-2170","TLE_LINE2":"2 47753  53.0551 177.0069 0002178  81.8398 278.2838 15.06407963 49284","PERIAPSIS":"545.681","ELEMENT_SET_NO":"999","MEAN_MOTION_DOT":"0.00000765","CLASSIFICATION_TYPE":"U","SITE":"AFETR","DECAY_DATE":null,"EPHEMERIS_TYPE":"0","MEAN_MOTION_DDOT":"0.0000000000000","PERIOD":"95.592","RA_OF_ASC_NODE":"177.0069","MEAN_ELEMENT_THEORY":"SGP4","EPOCH":"2022-01-13T17:35:26.217312","TLE_LINE1":"1 47753U 21017AH  22013.73294233  .00000765  00000-0  70229-4 0  9990","CENTER_NAME":"EARTH","NORAD_CAT_ID":"47753","RCS_SIZE":"LARGE","TIME_SYSTEM":"UTC","OBJECT_TYPE":"PAYLOAD","MEAN_ANOMALY":"278.2838","OBJECT_ID":"2021-017AH","ARG_OF_PERICENTER":"81.8398","SEMIMAJOR_AXIS":"6925.324","MEAN_MOTION":"15.06407963","COUNTRY_CODE":"US","LAUNCH_DATE":"2021-03-04","REV_AT_EPOCH":"4928"},{"RA_OF_ASC_NODE":"177.1481","NORAD_CAT_ID":"47754","TLE_LINE1":"1 47754U 21017AJ  22013.70346699  .00001877  00000-0  14491-3 0  9995","CENTER_NAME":"EARTH","MEAN_ELEMENT_THEORY":"SGP4","EPOCH":"2022-01-13T16:52:59.547936","RCS_SIZE":"LARGE","OBJECT_TYPE":"PAYLOAD","TIME_SYSTEM":"UTC","MEAN_ANOMALY":"283.4454","OBJECT_ID":"2021-017AJ","COUNTRY_CODE":"US","MEAN_MOTION":"15.06400140","ARG_OF_PERICENTER":"76.6790","SEMIMAJOR_AXIS":"6925.348","LAUNCH_DATE":"2021-03-04","REV_AT_EPOCH":"4924","REF_FRAME":"TEME","BSTAR":"0.00014491000000","INCLINATION":"53.0552","ECCENTRICITY":"0.00022800","FILE":"3272312","APOAPSIS":"548.792","GP_ID":"193811291","OBJECT_NAME":"STARLINK-2171","TLE_LINE2":"2 47754  53.0552 177.1481 0002280  76.6790 283.4454 15.06400140 49245","PERIAPSIS":"545.634","MEAN_MOTION_DOT":"0.00001877","ELEMENT_SET_NO":"999","DECAY_DATE":null,"CLASSIFICATION_TYPE":"U","SITE":"AFETR","EPHEMERIS_TYPE":"0","PERIOD":"95.592","MEAN_MOTION_DDOT":"0.0000000000000"},{"EPHEMERIS_TYPE":"0","PERIOD":"93.445","MEAN_MOTION_DDOT":"0.0000000000000","OBJECT_NAME":"STARLINK-2172","TLE_LINE2":"2 47755  53.0475 167.3045 0001237  51.9000 308.2115 15.41019756 49370","PERIAPSIS":"442.257","MEAN_MOTION_DOT":"0.00288003","ELEMENT_SET_NO":"999","DECAY_DATE":null,"CLASSIFICATION_TYPE":"U","SITE":"AFETR","ECCENTRICITY":"0.00012370","FILE":"3272312","APOAPSIS":"443.944","GP_ID":"193811542","REF_FRAME":"TEME","BSTAR":"0.00662810000000","INCLINATION":"53.0475","REV_AT_EPOCH":"4937","COUNTRY_CODE":"US","MEAN_MOTION":"15.41019756","SEMIMAJOR_AXIS":"6821.235","ARG_OF_PERICENTER":"51.9000","LAUNCH_DATE":"2021-03-04","MEAN_ANOMALY":"308.2115","OBJECT_ID":"2021-017AK","RA_OF_ASC_NODE":"167.3045","CENTER_NAME":"EARTH","TLE_LINE1":"1 47755U 21017AK  22013.69228032  .00288003  00000-0  66281-2 0  9995","NORAD_CAT_ID":"47755","MEAN_ELEMENT_THEORY":"SGP4","EPOCH":"2022-01-13T16:36:53.019648","RCS_SIZE":"LARGE","OBJECT_TYPE":"PAYLOAD","TIME_SYSTEM":"UTC"},{"RCS_SIZE":"LARGE","TIME_SYSTEM":"UTC","OBJECT_TYPE":"PAYLOAD","RA_OF_ASC_NODE":"176.8735","TLE_LINE1":"1 47756U 21017AL  22013.76612214  .00000984  00000-0  84993-4 0  9995","CENTER_NAME":"EARTH","NORAD_CAT_ID":"47756","MEAN_ELEMENT_THEORY":"SGP4","EPOCH":"2022-01-13T18:23:12.952896","OBJECT_ID":"2021-017AL","MEAN_ANOMALY":"273.5459","LAUNCH_DATE":"2021-03-04","COUNTRY_CODE":"US","MEAN_MOTION":"15.06393440","ARG_OF_PERICENTER":"86.5760","SEMIMAJOR_AXIS":"6925.369","REV_AT_EPOCH":"4929","BSTAR":"0.00008499300000","INCLINATION":"53.0553","REF_FRAME":"TEME","APOAPSIS":"548.626","GP_ID":"193811793","ECCENTRICITY":"0.00020100","FILE":"3272312","MEAN_MOTION_DOT":"0.00000984","ELEMENT_SET_NO":"999","DECAY_DATE":null,"SITE":"AFETR","CLASSIFICATION_TYPE":"U","OBJECT_NAME":"STARLINK-2174","PERIAPSIS":"545.842","TLE_LINE2":"2 47756  53.0553 176.8735 0002010  86.5760 273.5459 15.06393440 49298","MEAN_MOTION_DDOT":"0.0000000000000","PERIOD":"95.593","EPHEMERIS_TYPE":"0"},{"REF_FRAME":"TEME","BSTAR":"0.00008257400000","INCLINATION":"53.0561","ECCENTRICITY":"0.00023370","FILE":"3272312","APOAPSIS":"548.813","GP_ID":"193810541","OBJECT_NAME":"STARLINK-2175","PERIAPSIS":"545.576","TLE_LINE2":"2 47757  53.0561 176.3458 0002337  70.2392 289.8849 15.06406270 49253","ELEMENT_SET_NO":"999","MEAN_MOTION_DOT":"0.00000948","SITE":"AFETR","CLASSIFICATION_TYPE":"U","DECAY_DATE":null,"EPHEMERIS_TYPE":"0","MEAN_MOTION_DDOT":"0.0000000000000","PERIOD":"95.592","RA_OF_ASC_NODE":"176.3458","EPOCH":"2022-01-13T21:13:04.649376","MEAN_ELEMENT_THEORY":"SGP4","TLE_LINE1":"1 47757U 21017AM  22013.88408159  .00000948  00000-0  82574-4 0  9993","NORAD_CAT_ID":"47757","CENTER_NAME":"EARTH","RCS_SIZE":"LARGE","TIME_SYSTEM":"UTC","OBJECT_TYPE":"PAYLOAD","MEAN_ANOMALY":"289.8849","OBJECT_ID":"2021-017AM","SEMIMAJOR_AXIS":"6925.329","ARG_OF_PERICENTER":"70.2392","COUNTRY_CODE":"US","MEAN_MOTION":"15.06406270","LAUNCH_DATE":"2021-03-04","REV_AT_EPOCH":"4925"},{"RCS_SIZE":"LARGE","OBJECT_TYPE":"PAYLOAD","TIME_SYSTEM":"UTC","RA_OF_ASC_NODE":"172.7793","CENTER_NAME":"EARTH","TLE_LINE1":"1 47758U 21017AN  22013.88026173  .00259540  00000-0  75283-2 0  9997","NORAD_CAT_ID":"47758","EPOCH":"2022-01-13T21:07:34.613472","MEAN_ELEMENT_THEORY":"SGP4","OBJECT_ID":"2021-017AN","MEAN_ANOMALY":"334.1804","LAUNCH_DATE":"2021-03-04","COUNTRY_CODE":"US","MEAN_MOTION":"15.33985687","SEMIMAJOR_AXIS":"6842.072","ARG_OF_PERICENTER":"25.9299","REV_AT_EPOCH":"4936","BSTAR":"0.00752830000000","INCLINATION":"53.0569","REF_FRAME":"TEME","APOAPSIS":"465.327","GP_ID":"193810791","FILE":"3272312","ECCENTRICITY":"0.00020310","MEAN_MOTION_DOT":"0.00259540","ELEMENT_SET_NO":"999","DECAY_DATE":null,"SITE":"AFETR","CLASSIFICATION_TYPE":"U","OBJECT_NAME":"STARLINK-2176","PERIAPSIS":"462.547","TLE_LINE2":"2 47758  53.0569 172.7793 0002031  25.9299 334.1804 15.33985687 49369","PERIOD":"93.873","MEAN_MOTION_DDOT":"0.0000000000000","EPHEMERIS_TYPE":"0"},{"GP_ID":"193812043","APOAPSIS":"345.415","FILE":"3272312","ECCENTRICITY":"0.00010870","INCLINATION":"53.0528","BSTAR":"0.00119640000000","REF_FRAME":"TEME","PERIOD":"91.430","MEAN_MOTION_DDOT":"0.0000000000000","EPHEMERIS_TYPE":"0","CLASSIFICATION_TYPE":"U","SITE":"AFETR","DECAY_DATE":null,"ELEMENT_SET_NO":"999","MEAN_MOTION_DOT":"0.00184752","TLE_LINE2":"2 47759  53.0528 128.4845 0001087 269.8572  90.2322 15.74981933 49971","PERIAPSIS":"343.954","OBJECT_NAME":"STARLINK-2177","OBJECT_ID":"2021-017AP","MEAN_ANOMALY":"90.2322","TIME_SYSTEM":"UTC","OBJECT_TYPE":"PAYLOAD","RCS_SIZE":"LARGE","EPOCH":"2022-01-13T21:25:20.634816","MEAN_ELEMENT_THEORY":"SGP4","CENTER_NAME":"EARTH","TLE_LINE1":"1 47759U 21017AP  22013.89259994  .00184752  00000-0  11964-2 0  9996","NORAD_CAT_ID":"47759","RA_OF_ASC_NODE":"128.4845","REV_AT_EPOCH":"4997","LAUNCH_DATE":"2021-03-04","SEMIMAJOR_AXIS":"6722.820","ARG_OF_PERICENTER":"269.8572","MEAN_MOTION":"15.74981933","COUNTRY_CODE":"US"},{"REF_FRAME":"TEME","INCLINATION":"53.0581","BSTAR":"-0.00009762100000","ECCENTRICITY":"0.00023080","FILE":"3272312","GP_ID":"193812294","APOAPSIS":"548.786","TLE_LINE2":"2 47760  53.0581 186.7785 0002308  82.6328 277.4923 15.06408471 49139","PERIAPSIS":"545.589","OBJECT_NAME":"STARLINK-2178","SITE":"AFETR","CLASSIFICATION_TYPE":"U","DECAY_DATE":null,"ELEMENT_SET_NO":"999","MEAN_MOTION_DOT":"-0.00001736","EPHEMERIS_TYPE":"0","MEAN_MOTION_DDOT":"0.0000000000000","PERIOD":"95.592","EPOCH":"2022-01-13T18:48:25.676928","MEAN_ELEMENT_THEORY":"SGP4","TLE_LINE1":"1 47760U 21017AQ  22013.78363052 -.00001736  00000-0 -97621-4 0  9995","CENTER_NAME":"EARTH","NORAD_CAT_ID":"47760","RA_OF_ASC_NODE":"186.7785","TIME_SYSTEM":"UTC","OBJECT_TYPE":"PAYLOAD","RCS_SIZE":"LARGE","MEAN_ANOMALY":"277.4923","OBJECT_ID":"2021-017AQ","ARG_OF_PERICENTER":"82.6328","SEMIMAJOR_AXIS":"6925.323","MEAN_MOTION":"15.06408471","COUNTRY_CODE":"US","LAUNCH_DATE":"2021-03-04","REV_AT_EPOCH":"4913"},{"MEAN_MOTION_DDOT":"0.0000000000000","PERIOD":"95.592","EPHEMERIS_TYPE":"0","MEAN_MOTION_DOT":"0.00001840","ELEMENT_SET_NO":"999","DECAY_DATE":null,"CLASSIFICATION_TYPE":"U","SITE":"AFETR","OBJECT_NAME":"STARLINK-2179","TLE_LINE2":"2 47761  53.0542 176.9519 0002120  75.0448 285.0775 15.06408263 49245","PERIAPSIS":"545.720","GP_ID":"193811042","APOAPSIS":"548.656","ECCENTRICITY":"0.00021200","FILE":"3272312","BSTAR":"0.00014238000000","INCLINATION":"53.0542","REF_FRAME":"TEME","REV_AT_EPOCH":"4924","LAUNCH_DATE":"2021-03-04","COUNTRY_CODE":"US","MEAN_MOTION":"15.06408263","SEMIMAJOR_AXIS":"6925.323","ARG_OF_PERICENTER":"75.0448","OBJECT_ID":"2021-017AR","MEAN_ANOMALY":"285.0775","RCS_SIZE":"LARGE","TIME_SYSTEM":"UTC","OBJECT_TYPE":"PAYLOAD","RA_OF_ASC_NODE":"176.9519","NORAD_CAT_ID":"47761","TLE_LINE1":"1 47761U 21017AR  22013.74770413  .00001840  00000-0  14238-3 0  9991","CENTER_NAME":"EARTH","EPOCH":"2022-01-13T17:56:41.636832","MEAN_ELEMENT_THEORY":"SGP4"}];
